NORAD_CAT_ID,OBJECT_NAME,OBJECT_TYPE,EPOCH,MEAN_MOTION,ECCENTRICITY,INCLINATION,RA_OF_ASC_NODE,ARG_OF_PERICENTER,MEAN_ANOMALY,BSTAR,MEAN_MOTION_DOT,MEAN_MOTION_DDOT,TLE_LINE0,TLE_LINE1,TLE_LINE2,SEMIMAJOR_AXIS,PERIOD,APOGEE,PERIGEE,DECAYED
50832.0,STARLINK-3328,PAYLOAD,2022-12-05 09:05:23,15.08849048,0.0002033,53.2177,122.6459,56.514,303.6047,0.00011704,1.575e-05,0.0,0 STARLINK-3328,1 50832U 22001AF  22339.37874420  .00001575  00000-0  11704-3 0  9991,2 50832  53.2177 122.6459 0002033  56.5140 303.6047 15.08849048 50570,6917.853,95.437,541.124,538.311,0.0
50832.0,STARLINK-3328,PAYLOAD,2022-12-05 13:51:33,15.08840429,0.0002075,53.2177,121.7539,57.3421,302.7771,0.00015578,2.192e-05,0.0,0 STARLINK-3328,1 50832U 22001AF  22339.57746931  .00002192  00000-0  15578-3 0  9997,2 50832  53.2177 121.7539 0002075  57.3421 302.7771 15.08840429 51856,6917.879,95.438,541.18,538.309,0.0
50832.0,STARLINK-3328,PAYLOAD,2022-12-06 10:31:33,15.08844957,0.0001989,53.2187,117.8875,55.1675,304.9504,0.00016136,2.281e-05,0.0,0 STARLINK-3328,1 50832U 22001AF  22340.43858646  .00002281  00000-0  16136-3 0  9991,2 50832  53.2187 117.8875 0001989  55.1675 304.9504 15.08844957 50730,6917.865,95.437,541.106,538.354,0.0
50832.0,STARLINK-3328,PAYLOAD,2022-12-06 15:17:43,15.08840346,0.0001886,53.2166,116.9947,53.113,307.0035,2.9098e-05,1.75e-06,0.0,0 STARLINK-3328,1 50832U 22001AF  22340.63731120  .00000175  00000-0  29098-4 0  9992,2 50832  53.2166 116.9947 0001886  53.1130 307.0035 15.08840346 50761,6917.879,95.438,541.049,538.44,0.0
50832.0,STARLINK-3328,PAYLOAD,2022-12-06 16:53:06,15.0884001,0.0001904,53.2169,116.6974,54.6816,305.4354,1.9407e-05,2.1e-07,0.0,0 STARLINK-3328,1 50832U 22001AF  22340.70355150  .00000021  00000-0  19407-4 0  9998,2 50832  53.2169 116.6974 0001904  54.6816 305.4354 15.08840010 52024,6917.88,95.438,541.063,538.428,0.0
50832.0,STARLINK-3328,PAYLOAD,2022-12-07 15:08:28,15.08868733,0.000221,53.2184,112.5384,62.9833,297.1384,0.00021983,3.215e-05,0.0,0 STARLINK-3328,1 50832U 22001AF  22341.63088837  .00003215  00000-0  21983-3 0  9995,2 50832  53.2184 112.5384 0002210  62.9833 297.1384 15.08868733 52160,6917.793000000002,95.436,541.186,538.129,0.0
50832.0,STARLINK-3328,PAYLOAD,2022-12-08 02:16:14,15.08805938,0.0001883,53.2179,110.4573,284.2443,75.834,-0.00052391,-8.609e-05,0.0,0 STARLINK-3328,1 50832U 22001AF  22342.09460876 -.00008609  00000-0 -52391-3 0  9994,2 50832  53.2179 110.4573 0001883 284.2443  75.8340 15.08805938 52231,6917.985,95.44,541.1519999999998,538.547,0.0
50832.0,STARLINK-3328,PAYLOAD,2022-12-09 02:07:10,15.08650194,0.0002139,53.2176,105.9995,277.9345,82.1404,-0.0015514,-0.00024767,0.0,0 STARLINK-3328,1 50832U 22001AF  22343.08832128 -.00024767  00000-0 -15514-2 0  9995,2 50832  53.2176 105.9995 0002139 277.9345  82.1404 15.08650194 52380,6918.4609999999975,95.45,541.805,538.846,0.0
50832.0,STARLINK-3328,PAYLOAD,2022-12-10 14:40:55,15.08746108,0.0001286999999999,53.2185,99.1559,291.8285,68.257,0.0013821,0.0002172,0.0,0 STARLINK-3328,1 50832U 22001AF  22344.61174913  .00021720  00000-0  13821-2 0  9999,2 50832  53.2185  99.1559 0001287 291.8285  68.2570 15.08746108 52617,6918.167,95.443,540.923,539.1419999999998,0.0
50832.0,STARLINK-3328,PAYLOAD,2022-12-10 16:16:15,15.08837404,0.0001364,53.2178,98.858,62.7817,297.3314,-1.1559e-05,-4.72e-06,0.0,0 STARLINK-3328,1 50832U 22001AF  22344.67795275 -.00000472  00000-0 -11559-4 0  9996,2 50832  53.2178  98.8580 0001364  62.7817 297.3314 15.08837404 52623,6917.888000000001,95.438,540.697,538.81,0.0
50832.0,STARLINK-3328,PAYLOAD,2022-12-11 12:56:17,15.08819977,0.0001807,53.2172,94.9921,312.4240000000001,47.6599,0.0008863999999999,0.0001384,0.0,0 STARLINK-3328,1 50832U 22001AF  22345.53908634  .00013840  00000-0  88640-3 0  9992,2 50832  53.2172  94.9921 0001807 312.4240  47.6599 15.08819977 52750,6917.941999999999,95.439,541.057,538.557,0.0
50832.0,STARLINK-3328,PAYLOAD,2022-12-12 11:11:39,15.08847235,0.0001896,53.2175,90.8295,48.539,311.5764,0.00023535,3.46e-05,0.0,0 STARLINK-3328,1 50832U 22001AF  22346.46643080  .00003460  00000-0  23535-3 0  9995,2 50832  53.2175  90.8295 0001896  48.5390 311.5764 15.08847235 52893,6917.858,95.437,541.035,538.4119999999998,0.0
50832.0,STARLINK-3328,PAYLOAD,2022-12-12 17:33:12,15.08839603,0.0001923,53.2174,89.6404,43.764,316.3504,8.5798e-05,1.078e-05,0.0,0 STARLINK-3328,1 50832U 22001AF  22346.73139428  .00001078  00000-0  85798-4 0  9994,2 50832  53.2174  89.6404 0001923  43.7640 316.3504 15.08839603 52936,6917.882,95.438,541.077,538.4159999999998,0.0
50832.0,STARLINK-3328,PAYLOAD,2022-12-13 07:51:40,15.08836663,0.0002064,53.2196,86.9651,46.8515,313.265,-7.946e-05,-1.553e-05,0.0,0 STARLINK-3328,1 50832U 22001AF  22347.32755568 -.00001553  00000-0 -79460-4 0  9998,2 50832  53.2196  86.9651 0002064  46.8515 313.2650 15.08836663 51778,6917.891,95.438,541.183,538.328,0.0
50832.0,STARLINK-3328,PAYLOAD,2022-12-13 18:59:23,15.08839791,0.0002241,53.217,84.8824,40.4631,319.6528,1.5275e-05,-4.5e-07,0.0,0 STARLINK-3328,1 50832U 22001AF  22347.79123860 -.00000045  00000-0  15275-4 0  9991,2 50832  53.2170  84.8824 0002241  40.4631 319.6528 15.08839791 53091,6917.880999999999,95.438,541.2959999999998,538.196,0.0
50832.0,STARLINK-3328,PAYLOAD,2022-12-14 12:28:37,15.08841313,0.0001984,53.218,81.6107,43.6104,316.5044,-2.4605e-05,-6.8e-06,0.0,0 STARLINK-3328,1 50832U 22001AF  22348.51987799 -.00000680  00000-0 -24605-4 0  9994,2 50832  53.2180  81.6107 0001984  43.6104 316.5044 15.08841313 51959,6917.876,95.437,541.114,538.369,0.0
50832.0,STARLINK-3328,PAYLOAD,2022-12-14 18:50:09,15.08846714,0.0002009,53.218,80.4212,41.3595,318.7549,2.4009e-05,9.4e-07,0.0,0 STARLINK-3328,1 50832U 22001AF  22348.78483308  .00000094  00000-0  24009-4 0  9995,2 50832  53.2180  80.4212 0002009  41.3595 318.7549 15.08846714 51999,6917.86,95.437,541.115,538.335,0.0
50832.0,STARLINK-3328,PAYLOAD,2022-12-15 05:57:51,15.08847872,0.0002159,53.2182,78.3401,43.1853,316.9308,0.00013364,1.84e-05,0.0,0 STARLINK-3328,1 50832U 22001AF  22349.24851028  .00001840  00000-0  13364-3 0  9996,2 50832  53.2182  78.3401 0002159  43.1853 316.9308 15.08847872 53317,6917.856,95.437,541.215,538.2280000000002,0.0
50832.0,STARLINK-3328,PAYLOAD,2022-12-15 12:19:23,15.08847666,0.0002101,53.2172,77.1508,41.3087,318.8063,0.00024865,3.672e-05,0.0,0 STARLINK-3328,1 50832U 22001AF  22349.51347187  .00003672  00000-0  24865-3 0  9995,2 50832  53.2172  77.1508 0002101  41.3087 318.8063 15.08847666 52103,6917.857,95.437,541.175,538.269,0.0
50832.0,STARLINK-3328,PAYLOAD,2022-12-15 15:30:10,15.0884983,0.000205,53.2173,76.5556,42.2147,317.9002,0.00021298,3.104e-05,0.0,0 STARLINK-3328,1 50832U 22001AF  22349.64594988  .00003104  00000-0  21298-3 0  9999,2 50832  53.2173  76.5556 0002050  42.2147 317.9002 15.08849830 52120,6917.85,95.437,541.134,538.297,0.0
50832.0,STARLINK-3328,PAYLOAD,2022-12-15 23:27:05,15.08844182,0.0002032,53.2164,75.0678,46.2105,313.9055,0.00012529,1.707e-05,0.0,0 STARLINK-3328,1 50832U 22001AF  22349.97715178  .00001707  00000-0  12529-3 0  9995,2 50832  53.2164  75.0678 0002032  46.2105 313.9055 15.08844182 53420,6917.868,95.437,541.138,538.327,0.0
50832.0,STARLINK-3328,PAYLOAD,2022-12-16 12:10:11,15.08839483,0.0002296,53.2184,72.6912,33.9961,326.1178,7.259e-05,8.67e-06,0.0,0 STARLINK-3328,1 50832U 22001AF  22350.50707349  .00000867  00000-0  72590-4 0  9998,2 50832  53.2184  72.6912 0002296  33.9961 326.1178 15.08839483 52251,6917.882,95.438,541.335,538.159,0.0
50832.0,STARLINK-3328,PAYLOAD,2022-12-16 16:56:21,15.08825107,0.0002262,53.2182,71.7992,33.8889,326.2247,0.00011804,1.59e-05,0.0,0 STARLINK-3328,1 50832U 22001AF  22350.70580129  .00001590  00000-0  11804-3 0  9999,2 50832  53.2182  71.7992 0002262  33.8889 326.2247 15.08825107 53536,6917.926,95.438,541.356,538.226,0.0
50832.0,STARLINK-3328,PAYLOAD,2022-12-17 12:00:59,15.08826212,0.0002185,53.2187,68.2301,36.0179,324.096,-0.00016761,-2.954e-05,0.0,0 STARLINK-3328,1 50832U 22001AF  22351.50069158 -.00002954  00000-0 -16761-3 0  9996,2 50832  53.2187  68.2301 0002185  36.0179 324.0960 15.08826212 52408,6917.9230000000025,95.438,541.299,538.276,0.0
50832.0,STARLINK-3328,PAYLOAD,2022-12-17 16:47:09,15.08828702,0.0002181,53.2185,67.3381,39.0596,321.0554,-0.00013433,-2.425e-05,0.0,0 STARLINK-3328,1 50832U 22001AF  22351.69941036 -.00002425  00000-0 -13433-3 0  9996,2 50832  53.2185  67.3381 0002181  39.0596 321.0554 15.08828702 52431,6917.915,95.438,541.289,538.271,0.0
50832.0,STARLINK-3328,PAYLOAD,2022-12-18 11:51:45,15.08839389,0.0002225,53.2185,63.7702,38.6908,321.4243,6.4547e-05,7.39e-06,0.0,0 STARLINK-3328,1 50832U 22001AF  22352.49428126  .00000739  00000-0  64547-4 0  9992,2 50832  53.2185  63.7702 0002225  38.6908 321.4243 15.08839389 52554,6917.882,95.438,541.286,538.2080000000002,0.0
50832.0,STARLINK-3328,PAYLOAD,2022-12-18 13:27:09,15.08837202,0.0002262,53.2184,63.4734,35.6435,324.4708,4.1578e-05,3.73e-06,0.0,0 STARLINK-3328,1 50832U 22001AF  22352.56052377  .00000373  00000-0  41578-4 0  9994,2 50832  53.2184  63.4734 0002262  35.6435 324.4708 15.08837202 53819,6917.889,95.438,541.319,538.189,0.0
50832.0,STARLINK-3328,PAYLOAD,2022-12-18 21:24:05,15.08827158,0.0002321,53.2185,61.9864,38.5339,321.5818,6.2487e-05,7.06e-06,0.0,0 STARLINK-3328,1 50832U 22001AF  22352.89173158  .00000706  00000-0  62487-4 0  9993,2 50832  53.2185  61.9864 0002321  38.5339 321.5818 15.08827158 52614,6917.92,95.438,541.39,538.179,0.0
50832.0,STARLINK-3328,PAYLOAD,2022-12-19 14:53:19,15.08838846,0.0002274,53.2188,58.7166,39.6309,320.4849,0.00024307,3.582e-05,0.0,0 STARLINK-3328,1 50832U 22001AF  22353.62036136  .00003582  00000-0  24307-3 0  9992,2 50832  53.2188  58.7166 0002274  39.6309 320.4849 15.08838846 52722,6917.884,95.438,541.322,538.1759999999998,0.0
